[{"OBJECT_NAME":"STARLINK-32211","OBJECT_ID":"2024-131R","EPOCH":"2026-03-09T22:42:33.679296","MEAN_MOTION":15.30190646,"ECCENTRICITY":0.00011593,"INCLINATION":53.1608,"RA_OF_ASC_NODE":51.5513,"ARG_OF_PERICENTER":90.7986,"MEAN_ANOMALY":269.3148,"EPHEMERIS_TYPE":0,"CLASSIFICATION_TYPE":"U","NORAD_CAT_ID":60270,"ELEMENT_SET_NO":999,"REV_AT_EPOCH":9175,"BSTAR":1.1597233e-5,"MEAN_MOTION_DOT":-1.6e-7,"MEAN_MOTION_DDOT":0},{"OBJECT_NAME":"YAOGAN-43 01F","OBJECT_ID":"2024-148F","EPOCH":"2026-03-10T00:23:08.877408","MEAN_MOTION":15.29824616,"ECCENTRICITY":0.00057048,"INCLINATION":34.9925,"RA_OF_ASC_NODE":59.8891,"ARG_OF_PERICENTER":18.4862,"MEAN_ANOMALY":341.6062,"EPHEMERIS_TYPE":0,"CLASSIFICATION_TYPE":"U","NORAD_CAT_ID":60463,"ELEMENT_SET_NO":999,"REV_AT_EPOCH":8707,"BSTAR":0.00058388219,"MEAN_MOTION_DOT":0.00017308,"MEAN_MOTION_DDOT":0}]
